[{"OBJECT_NAME":"ICEYE-X40","OBJECT_ID":"2024-149CK","EPOCH":"2026-03-03T03:27:42.075072","MEAN_MOTION":14.97512924,"ECCENTRICITY":0.0005691,"INCLINATION":97.6868,"RA_OF_ASC_NODE":140.3479,"ARG_OF_PERICENTER":80.1844,"MEAN_ANOMALY":280.002,"EPHEMERIS_TYPE":0,"CLASSIFICATION_TYPE":"U","NORAD_CAT_ID":60549,"ELEMENT_SET_NO":999,"REV_AT_EPOCH":8420,"BSTAR":0.00023191,"MEAN_MOTION_DOT":2.647e-5,"MEAN_MOTION_DDOT":0},{"OBJECT_NAME":"SATELIOT_1","OBJECT_ID":"2024-149CL","EPOCH":"2026-03-03T04:59:14.820288","MEAN_MOTION":14.9756073,"ECCENTRICITY":0.0007526,"INCLINATION":97.6812,"RA_OF_ASC_NODE":139.8788,"ARG_OF_PERICENTER":75.5875,"MEAN_ANOMALY":284.6182,"EPHEMERIS_TYPE":0,"CLASSIFICATION_TYPE":"U","NORAD_CAT_ID":60550,"ELEMENT_SET_NO":999,"REV_AT_EPOCH":8420,"BSTAR":0.00022881,"MEAN_MOTION_DOT":2.614e-5,"MEAN_MOTION_DDOT":0},{"OBJECT_NAME":"BRO-14","OBJECT_ID":"2024-149CM","EPOCH":"2026-03-03T04:25:39.235296","MEAN_MOTION":14.95908016,"ECCENTRICITY":0.000818,"INCLINATION":97.6948,"RA_OF_ASC_NODE":139.8556,"ARG_OF_PERICENTER":92.5356,"MEAN_ANOMALY":267.6802,"EPHEMERIS_TYPE":0,"CLASSIFICATION_TYPE":"U","NORAD_CAT_ID":60551,"ELEMENT_SET_NO":999,"REV_AT_EPOCH":8414,"BSTAR":0.00012547,"MEAN_MOTION_DOT":1.347e-5,"MEAN_MOTION_DDOT":0},{"OBJECT_NAME":"SATELIOT_3","OBJECT_ID":"2024-149CN","EPOCH":"2026-03-03T04:23:53.352960","MEAN_MOTION":14.97563647,"ECCENTRICITY":0.0006574,"INCLINATION":97.6904,"RA_OF_ASC_NODE":140.5488,"ARG_OF_PERICENTER":81.1862,"MEAN_ANOMALY":279.0105,"EPHEMERIS_TYPE":0,"CLASSIFICATION_TYPE":"U","NORAD_CAT_ID":60552,"ELEMENT_SET_NO":999,"REV_AT_EPOCH":8421,"BSTAR":0.00021876,"MEAN_MOTION_DOT":2.497e-5,"MEAN_MOTION_DDOT":0},{"OBJECT_NAME":"BRO-15","OBJECT_ID":"2024-149CP","EPOCH":"2026-03-03T03:56:30.348960","MEAN_MOTION":14.95874124,"ECCENTRICITY":0.0009661,"INCLINATION":97.6878,"RA_OF_ASC_NODE":139.5373,"ARG_OF_PERICENTER":85.0581,"MEAN_ANOMALY":275.1743,"EPHEMERIS_TYPE":0,"CLASSIFICATION_TYPE":"U","NORAD_CAT_ID":60553,"ELEMENT_SET_NO":999,"REV_AT_EPOCH":8415,"BSTAR":0.00015165,"MEAN_MOTION_DOT":1.639e-5,"MEAN_MOTION_DDOT":0},{"OBJECT_NAME":"UM5-RIBAT","OBJECT_ID":"2024-149CQ","EPOCH":"2026-03-03T04:38:30.515136","MEAN_MOTION":15.00399521,"ECCENTRICITY":0.0003943,"INCLINATION":97.6815,"RA_OF_ASC_NODE":141.3937,"ARG_OF_PERICENTER":98.6424,"MEAN_ANOMALY":261.5246,"EPHEMERIS_TYPE":0,"CLASSIFICATION_TYPE":"U","NORAD_CAT_ID":60554,"ELEMENT_SET_NO":999,"REV_AT_EPOCH":8429,"BSTAR":0.0003172,"MEAN_MOTION_DOT":3.927e-5,"MEAN_MOTION_DDOT":0},{"OBJECT_NAME":"UM5-EOSAT","OBJECT_ID":"2024-149CR","EPOCH":"2026-03-03T04:32:40.685856","MEAN_MOTION":15.00826376,"ECCENTRICITY":0.0009247,"INCLINATION":97.6894,"RA_OF_ASC_NODE":142.2153,"ARG_OF_PERICENTER":125.2049,"MEAN_ANOMALY":235.0042,"EPHEMERIS_TYPE":0,"CLASSIFICATION_TYPE":"U","NORAD_CAT_ID":60555,"ELEMENT_SET_NO":999,"REV_AT_EPOCH":8431,"BSTAR":0.00035167,"MEAN_MOTION_DOT":4.413e-5,"MEAN_MOTION_DDOT":0},{"OBJECT_NAME":"LASARSAT","OBJECT_ID":"2024-247Q","EPOCH":"2026-03-03T04:45:39.879936","MEAN_MOTION":15.39670734,"ECCENTRICITY":0.0002946,"INCLINATION":44.9762,"RA_OF_ASC_NODE":134.8764,"ARG_OF_PERICENTER":344.9527,"MEAN_ANOMALY":15.1273,"EPHEMERIS_TYPE":0,"CLASSIFICATION_TYPE":"U","NORAD_CAT_ID":62391,"ELEMENT_SET_NO":999,"REV_AT_EPOCH":6694,"BSTAR":0.00084764,"MEAN_MOTION_DOT":0.00033989,"MEAN_MOTION_DDOT":0},{"OBJECT_NAME":"CROCUBE","OBJECT_ID":"2024-247T","EPOCH":"2026-03-02T06:14:53.404512","MEAN_MOTION":15.40697026,"ECCENTRICITY":0.00032125,"INCLINATION":44.9736,"RA_OF_ASC_NODE":138.7841,"ARG_OF_PERICENTER":324.6496,"MEAN_ANOMALY":35.4178,"EPHEMERIS_TYPE":0,"CLASSIFICATION_TYPE":"U","NORAD_CAT_ID":62394,"ELEMENT_SET_NO":999,"REV_AT_EPOCH":6681,"BSTAR":0.00093069988,"MEAN_MOTION_DOT":0.00038674,"MEAN_MOTION_DDOT":0},{"OBJECT_NAME":"TEVEL2-4","OBJECT_ID":"2025-052D","EPOCH":"2026-03-02T16:47:26.507904","MEAN_MOTION":15.30565789,"ECCENTRICITY":0.00044595,"INCLINATION":97.404,"RA_OF_ASC_NODE":318.1473,"ARG_OF_PERICENTER":108.3721,"MEAN_ANOMALY":251.8005,"EPHEMERIS_TYPE":0,"CLASSIFICATION_TYPE":"U","NORAD_CAT_ID":63213,"ELEMENT_SET_NO":999,"REV_AT_EPOCH":5380,"BSTAR":0.00075406769,"MEAN_MOTION_DOT":0.00022254,"MEAN_MOTION_DDOT":0},{"OBJECT_NAME":"TEVEL2-5","OBJECT_ID":"2025-052E","EPOCH":"2026-03-03T04:01:29.324928","MEAN_MOTION":15.30472372,"ECCENTRICITY":0.000448,"INCLINATION":97.4034,"RA_OF_ASC_NODE":318.5881,"ARG_OF_PERICENTER":107.9794,"MEAN_ANOMALY":252.1935,"EPHEMERIS_TYPE":0,"CLASSIFICATION_TYPE":"U","NORAD_CAT_ID":63214,"ELEMENT_SET_NO":999,"REV_AT_EPOCH":5387,"BSTAR":0.00075087,"MEAN_MOTION_DOT":0.00022095,"MEAN_MOTION_DDOT":0},{"OBJECT_NAME":"TEVEL2-6","OBJECT_ID":"2025-052F","EPOCH":"2026-03-03T04:15:23.095296","MEAN_MOTION":15.30430207,"ECCENTRICITY":0.0004565,"INCLINATION":97.4039,"RA_OF_ASC_NODE":318.5831,"ARG_OF_PERICENTER":109.1661,"MEAN_ANOMALY":251.0075,"EPHEMERIS_TYPE":0,"CLASSIFICATION_TYPE":"U","NORAD_CAT_ID":63215,"ELEMENT_SET_NO":999,"REV_AT_EPOCH":5387,"BSTAR":0.00076213,"MEAN_MOTION_DOT":0.00022399,"MEAN_MOTION_DDOT":0},{"OBJECT_NAME":"TEVEL2-1","OBJECT_ID":"2025-052H","EPOCH":"2026-03-03T04:10:18.871392","MEAN_MOTION":15.30019936,"ECCENTRICITY":0.0004409,"INCLINATION":97.4013,"RA_OF_ASC_NODE":318.3187,"ARG_OF_PERICENTER":117.8452,"MEAN_ANOMALY":242.3236,"EPHEMERIS_TYPE":0,"CLASSIFICATION_TYPE":"U","NORAD_CAT_ID":63217,"ELEMENT_SET_NO":999,"REV_AT_EPOCH":5386,"BSTAR":0.00075273,"MEAN_MOTION_DOT":0.00021842,"MEAN_MOTION_DDOT":0},{"OBJECT_NAME":"TEVEL2-3","OBJECT_ID":"2025-052J","EPOCH":"2026-03-03T04:07:02.455680","MEAN_MOTION":15.30053897,"ECCENTRICITY":0.0004368,"INCLINATION":97.4017,"RA_OF_ASC_NODE":318.327,"ARG_OF_PERICENTER":119.1899,"MEAN_ANOMALY":240.9779,"EPHEMERIS_TYPE":0,"CLASSIFICATION_TYPE":"U","NORAD_CAT_ID":63218,"ELEMENT_SET_NO":999,"REV_AT_EPOCH":5386,"BSTAR":0.00073592,"MEAN_MOTION_DOT":0.00021373,"MEAN_MOTION_DDOT":0},{"OBJECT_NAME":"TEVEL2-2","OBJECT_ID":"2025-052K","EPOCH":"2026-03-02T10:55:19.144416","MEAN_MOTION":15.29988876,"ECCENTRICITY":0.00042359,"INCLINATION":97.4017,"RA_OF_ASC_NODE":317.6037,"ARG_OF_PERICENTER":120.2136,"MEAN_ANOMALY":239.9524,"EPHEMERIS_TYPE":0,"CLASSIFICATION_TYPE":"U","NORAD_CAT_ID":63219,"ELEMENT_SET_NO":999,"REV_AT_EPOCH":5375,"BSTAR":0.00079209034,"MEAN_MOTION_DOT":0.00022969,"MEAN_MOTION_DDOT":0},{"OBJECT_NAME":"TEVEL2-9","OBJECT_ID":"2025-052AD","EPOCH":"2026-03-02T16:44:09.343968","MEAN_MOTION":15.28311423,"ECCENTRICITY":0.00073132,"INCLINATION":97.4078,"RA_OF_ASC_NODE":317.4266,"ARG_OF_PERICENTER":144.2958,"MEAN_ANOMALY":215.8772,"EPHEMERIS_TYPE":0,"CLASSIFICATION_TYPE":"U","NORAD_CAT_ID":63237,"ELEMENT_SET_NO":999,"REV_AT_EPOCH":5374,"BSTAR":0.00072565855,"MEAN_MOTION_DOT":0.00019983,"MEAN_MOTION_DDOT":0},{"OBJECT_NAME":"TEVEL2-7","OBJECT_ID":"2025-052AE","EPOCH":"2026-03-02T06:17:40.888320","MEAN_MOTION":15.28082137,"ECCENTRICITY":0.00074531,"INCLINATION":97.4081,"RA_OF_ASC_NODE":316.9483,"ARG_OF_PERICENTER":146.3242,"MEAN_ANOMALY":213.8472,"EPHEMERIS_TYPE":0,"CLASSIFICATION_TYPE":"U","NORAD_CAT_ID":63238,"ELEMENT_SET_NO":999,"REV_AT_EPOCH":5367,"BSTAR":0.00074740617,"MEAN_MOTION_DOT":0.00020443,"MEAN_MOTION_DDOT":0}]
